start=new Date('2021-10-22T00:00:00.000Z').valueOf();
sats=[{"RCS_SIZE":"LARGE","ECCENTRICITY":"0.00017490","PERIOD":"95.593","CENTER_NAME":"EARTH","OBJECT_NAME":"STARLINK-1140","EPHEMERIS_TYPE":"0","TIME_SYSTEM":"UTC","RA_OF_ASC_NODE":"269.5300","TLE_LINE1":"1 45050U 20006G   21294.64055715  .00000186  00000-0  31428-4 0  9990","REV_AT_EPOCH":"9529","APOAPSIS":"548.480","MEAN_MOTION_DOT":"0.00000186","TLE_LINE2":"2 45050  53.0525 269.5300 0001749  66.3293 293.7879 15.06382095 95290","ARG_OF_PERICENTER":"66.3293","MEAN_MOTION":"15.06382095","DECAY_DATE":null,"ELEMENT_SET_NO":"999","PERIAPSIS":"546.057","LAUNCH_DATE":"2020-01-29","SEMIMAJOR_AXIS":"6925.403","EPOCH":"2021-10-21T15:22:24.137760","CLASSIFICATION_TYPE":"U","OBJECT_TYPE":"PAYLOAD","COUNTRY_CODE":"US","NORAD_CAT_ID":"45050","MEAN_ELEMENT_THEORY":"SGP4","REF_FRAME":"TEME","BSTAR":"0.00003142800000","INCLINATION":"53.0525","OBJECT_ID":"2020-006G","MEAN_ANOMALY":"293.7879","SITE":"AFETR","FILE":"3176920","GP_ID":"187838127","MEAN_MOTION_DDOT":"0.0000000000000"},{"OBJECT_ID":"2020-006H","MEAN_ANOMALY":"286.0494","FILE":"3176920","SITE":"AFETR","GP_ID":"187837878","MEAN_MOTION_DDOT":"0.0000000000000","CLASSIFICATION_TYPE":"U","OBJECT_TYPE":"PAYLOAD","NORAD_CAT_ID":"45051","COUNTRY_CODE":"US","MEAN_ELEMENT_THEORY":"SGP4","REF_FRAME":"TEME","INCLINATION":"53.0525","BSTAR":"0.00027947000000","RA_OF_ASC_NODE":"269.5298","TIME_SYSTEM":"UTC","EPHEMERIS_TYPE":"0","REV_AT_EPOCH":"9529","TLE_LINE1":"1 45051U 20006H   21294.63619512  .00003899  00000-0  27947-3 0  9995","APOAPSIS":"547.659","MEAN_MOTION_DOT":"0.00003899","TLE_LINE2":"2 45051  53.0525 269.5298 0001260  74.0633 286.0494 15.06539442 95297","ARG_OF_PERICENTER":"74.0633","MEAN_MOTION":"15.06539442","DECAY_DATE":null,"PERIAPSIS":"545.914","ELEMENT_SET_NO":"999","EPOCH":"2021-10-21T15:16:07.258368","LAUNCH_DATE":"2020-01-29","SEMIMAJOR_AXIS":"6924.921","RCS_SIZE":"LARGE","ECCENTRICITY":"0.00012600","PERIOD":"95.583","CENTER_NAME":"EARTH","OBJECT_NAME":"STARLINK-1141"},{"RCS_SIZE":"LARGE","ECCENTRICITY":"0.00014710","CENTER_NAME":"EARTH","PERIOD":"95.593","OBJECT_NAME":"STARLINK-1148","EPHEMERIS_TYPE":"0","TIME_SYSTEM":"UTC","RA_OF_ASC_NODE":"269.4969","APOAPSIS":"548.257","MEAN_MOTION_DOT":"-0.00000652","REV_AT_EPOCH":"9529","TLE_LINE1":"1 45052U 20006J   21294.64791633 -.00000652  00000-0 -24877-4 0  9998","DECAY_DATE":null,"ARG_OF_PERICENTER":"65.2811","TLE_LINE2":"2 45052  53.0535 269.4969 0001471  65.2811 294.8331 15.06392017 95299","MEAN_MOTION":"15.06392017","EPOCH":"2021-10-21T15:32:59.970912","LAUNCH_DATE":"2020-01-29","SEMIMAJOR_AXIS":"6925.373","ELEMENT_SET_NO":"999","PERIAPSIS":"546.219","CLASSIFICATION_TYPE":"U","COUNTRY_CODE":"US","NORAD_CAT_ID":"45052","OBJECT_TYPE":"PAYLOAD","REF_FRAME":"TEME","MEAN_ELEMENT_THEORY":"SGP4","BSTAR":"-0.00002487700000","INCLINATION":"53.0535","OBJECT_ID":"2020-006J","SITE":"AFETR","FILE":"3176920","MEAN_ANOMALY":"294.8331","GP_ID":"187839129","MEAN_MOTION_DDOT":"0.0000000000000"},{"RCS_SIZE":"LARGE","ECCENTRICITY":"0.00009110","PERIOD":"95.535","CENTER_NAME":"EARTH","OBJECT_NAME":"STARLINK-1155","RA_OF_ASC_NODE":"268.9815","TIME_SYSTEM":"UTC","EPHEMERIS_TYPE":"0","TLE_LINE1":"1 45053U 20006K   21294.41105334  .00004386  00000-0  30579-3 0  9992","REV_AT_EPOCH":"9526","APOAPSIS":"545.103","MEAN_MOTION_DOT":"0.00004386","TLE_LINE2":"2 45053  52.9998 268.9815 0000911 103.3089 256.8001 15.07294704 95268","MEAN_MOTION":"15.07294704","ARG_OF_PERICENTER":"103.3089","DECAY_DATE":null,"ELEMENT_SET_NO":"999","PERIAPSIS":"543.842","EPOCH":"2021-10-21T09:51:55.008576","LAUNCH_DATE":"2020-01-29","SEMIMAJOR_AXIS":"6922.608","CLASSIFICATION_TYPE":"U","OBJECT_TYPE":"PAYLOAD","NORAD_CAT_ID":"45053","COUNTRY_CODE":"US","MEAN_ELEMENT_THEORY":"SGP4","REF_FRAME":"TEME","INCLINATION":"52.9998","BSTAR":"0.00030579000000","OBJECT_ID":"2020-006K","MEAN_ANOMALY":"256.8001","FILE":"3176553","SITE":"AFETR","GP_ID":"187809228","MEAN_MOTION_DDOT":"0.0000000000000"},{"SITE":"AFETR","FILE":"3176920","MEAN_ANOMALY":"296.7890","OBJECT_ID":"2020-006L","MEAN_MOTION_DDOT":"0.0000000000000","GP_ID":"187837628","COUNTRY_CODE":"US","NORAD_CAT_ID":"45054","OBJECT_TYPE":"PAYLOAD","CLASSIFICATION_TYPE":"U","BSTAR":"-0.00000167130000","INCLINATION":"53.0557","REF_FRAME":"TEME","MEAN_ELEMENT_THEORY":"SGP4","APOAPSIS":"548.308","MEAN_MOTION_DOT":"-0.00000306","REV_AT_EPOCH":"9529","TLE_LINE1":"1 45054U 20006L   21294.64422901 -.00000306  00000-0 -16713-5 0  9996","EPHEMERIS_TYPE":"0","TIME_SYSTEM":"UTC","RA_OF_ASC_NODE":"269.5038","SEMIMAJOR_AXIS":"6925.351","LAUNCH_DATE":"2020-01-29","EPOCH":"2021-10-21T15:27:41.386464","ELEMENT_SET_NO":"999","PERIAPSIS":"546.124","DECAY_DATE":null,"MEAN_MOTION":"15.06399230","TLE_LINE2":"2 45054  53.0557 269.5038 0001577  63.3260 296.7890 15.06399230 95292","ARG_OF_PERICENTER":"63.3260","ECCENTRICITY":"0.00015770","RCS_SIZE":"LARGE","OBJECT_NAME":"STARLINK-1156","CENTER_NAME":"EARTH","PERIOD":"95.592"},{"RCS_SIZE":"LARGE","ECCENTRICITY":"0.00015400","PERIOD":"95.592","CENTER_NAME":"EARTH","OBJECT_NAME":"STARLINK-1159","EPHEMERIS_TYPE":"0","TIME_SYSTEM":"UTC","RA_OF_ASC_NODE":"269.4346","REV_AT_EPOCH":"9530","TLE_LINE1":"1 45057U 20006P   21294.65897086 -.00000264  00000-0  11481-5 0  9999","MEAN_MOTION_DOT":"-0.00000264","APOAPSIS":"548.288","TLE_LINE2":"2 45057  53.0537 269.4346 0001540  72.4802 287.6355 15.06397481 95300","ARG_OF_PERICENTER":"72.4802","MEAN_MOTION":"15.06397481","DECAY_DATE":null,"PERIAPSIS":"546.155","ELEMENT_SET_NO":"999","SEMIMAJOR_AXIS":"6925.356","LAUNCH_DATE":"2020-01-29","EPOCH":"2021-10-21T15:48:55.082304","CLASSIFICATION_TYPE":"U","OBJECT_TYPE":"PAYLOAD","COUNTRY_CODE":"US","NORAD_CAT_ID":"45057","MEAN_ELEMENT_THEORY":"SGP4","REF_FRAME":"TEME","BSTAR":"0.00000114810000","INCLINATION":"53.0537","OBJECT_ID":"2020-006P","MEAN_ANOMALY":"287.6355","SITE":"AFETR","FILE":"3176920","GP_ID":"187838378","MEAN_MOTION_DDOT":"0.0000000000000"},{"TIME_SYSTEM":"UTC","EPHEMERIS_TYPE":"0","RA_OF_ASC_NODE":"269.4790","MEAN_MOTION_DOT":"-0.00000475","APOAPSIS":"548.411","TLE_LINE1":"1 45058U 20006Q   21294.65159801 -.00000475  00000-0 -12999-4 0  9995","REV_AT_EPOCH":"9530","DECAY_DATE":null,"TLE_LINE2":"2 45058  53.0548 269.4790 0001756  71.2242 288.8937 15.06406069 95302","ARG_OF_PERICENTER":"71.2242","MEAN_MOTION":"15.06406069","SEMIMAJOR_AXIS":"6925.330","LAUNCH_DATE":"2020-01-29","EPOCH":"2021-10-21T15:38:18.068064","PERIAPSIS":"545.979","ELEMENT_SET_NO":"999","RCS_SIZE":"LARGE","ECCENTRICITY":"0.00017560","CENTER_NAME":"EARTH","PERIOD":"95.592","OBJECT_NAME":"STARLINK-1162","OBJECT_ID":"2020-006Q","SITE":"AFETR","FILE":"3176920","MEAN_ANOMALY":"288.8937","GP_ID":"187838630","MEAN_MOTION_DDOT":"0.0000000000000","CLASSIFICATION_TYPE":"U","COUNTRY_CODE":"US","NORAD_CAT_ID":"45058","OBJECT_TYPE":"PAYLOAD","REF_FRAME":"TEME","MEAN_ELEMENT_THEORY":"SGP4","BSTAR":"-0.00001299900000","INCLINATION":"53.0548"},{"MEAN_MOTION_DDOT":"0.0000000000000","GP_ID":"187838875","MEAN_ANOMALY":"297.2267","SITE":"AFETR","FILE":"3176920","OBJECT_ID":"2020-006R","BSTAR":"-0.00001872700000","INCLINATION":"53.0536","MEAN_ELEMENT_THEORY":"SGP4","REF_FRAME":"TEME","OBJECT_TYPE":"PAYLOAD","COUNTRY_CODE":"US","NORAD_CAT_ID":"45059","CLASSIFICATION_TYPE":"U","ELEMENT_SET_NO":"999","PERIAPSIS":"545.984","LAUNCH_DATE":"2020-01-29","EPOCH":"2021-10-21T16:10:10.446528","SEMIMAJOR_AXIS":"6925.338","MEAN_MOTION":"15.06403348","TLE_LINE2":"2 45059  53.0536 269.3713 0001761  62.8902 297.2267 15.06403348 95306","ARG_OF_PERICENTER":"62.8902","DECAY_DATE":null,"TLE_LINE1":"1 45059U 20006R   21294.67373202 -.00000561  00000-0 -18727-4 0  9992","REV_AT_EPOCH":"9530","APOAPSIS":"548.423","MEAN_MOTION_DOT":"-0.00000561","EPHEMERIS_TYPE":"0","TIME_SYSTEM":"UTC","RA_OF_ASC_NODE":"269.3713","OBJECT_NAME":"STARLINK-1165","PERIOD":"95.592","CENTER_NAME":"EARTH","ECCENTRICITY":"0.00017610","RCS_SIZE":"LARGE"},{"MEAN_ELEMENT_THEORY":"SGP4","REF_FRAME":"TEME","BSTAR":"-0.00002033800000","INCLINATION":"53.0531","CLASSIFICATION_TYPE":"U","OBJECT_TYPE":"PAYLOAD","COUNTRY_CODE":"US","NORAD_CAT_ID":"45060","GP_ID":"187838128","MEAN_MOTION_DDOT":"0.0000000000000","OBJECT_ID":"2020-006S","MEAN_ANOMALY":"285.6558","SITE":"AFETR","FILE":"3176920","PERIOD":"95.592","CENTER_NAME":"EARTH","OBJECT_NAME":"STARLINK-1166","RCS_SIZE":"LARGE","ECCENTRICITY":"0.00015580","MEAN_MOTION":"15.06402997","TLE_LINE2":"2 45060  53.0531 269.3963 0001558  74.4602 285.6558 15.06402997 95303","ARG_OF_PERICENTER":"74.4602","DECAY_DATE":null,"PERIAPSIS":"546.125","ELEMENT_SET_NO":"999","SEMIMAJOR_AXIS":"6925.339","LAUNCH_DATE":"2020-01-29","EPOCH":"2021-10-21T16:04:51.700512","TIME_SYSTEM":"UTC","EPHEMERIS_TYPE":"0","RA_OF_ASC_NODE":"269.3963","REV_AT_EPOCH":"9530","TLE_LINE1":"1 45060U 20006S   21294.67004283 -.00000584  00000-0 -20338-4 0  9990","MEAN_MOTION_DOT":"-0.00000584","APOAPSIS":"548.283"},{"OBJECT_TYPE":"PAYLOAD","NORAD_CAT_ID":"45061","COUNTRY_CODE":"US","CLASSIFICATION_TYPE":"U","INCLINATION":"53.0549","BSTAR":"0.00002058300000","MEAN_ELEMENT_THEORY":"SGP4","REF_FRAME":"TEME","MEAN_ANOMALY":"287.0676","FILE":"3176553","SITE":"AFETR","OBJECT_ID":"2020-006T","MEAN_MOTION_DDOT":"0.0000000000000","GP_ID":"187808732","ECCENTRICITY":"0.00015470","RCS_SIZE":"LARGE","OBJECT_NAME":"STARLINK-1169","PERIOD":"95.592","CENTER_NAME":"EARTH","TLE_LINE1":"1 45061U 20006T   21294.34567522  .00000025  00000-0  20583-4 0  9995","REV_AT_EPOCH":"9525","APOAPSIS":"548.299","MEAN_MOTION_DOT":"0.00000025","RA_OF_ASC_NODE":"270.8508","EPHEMERIS_TYPE":"0","TIME_SYSTEM":"UTC","ELEMENT_SET_NO":"999","PERIAPSIS":"546.156","LAUNCH_DATE":"2020-01-29","EPOCH":"2021-10-21T08:17:46.339008","SEMIMAJOR_AXIS":"6925.362","TLE_LINE2":"2 45061  53.0549 270.8508 0001547  73.0482 287.0676 15.06395555 95256","ARG_OF_PERICENTER":"73.0482","MEAN_MOTION":"15.06395555","DECAY_DATE":null}];
